format  = 'OEF2.0'       ! file format
rectype = 'ML'           ! record type (1L/ML)
refsys  = ECLM J2000     ! default reference system
END_OF_HEADER
2009BD
! Equinoctial elements: a, e*sin(LP), e*cos(LP), tan(i/2)*sin(LN), tan(i/2)*cos(LN), mean long.
 EQU   1.0617101378986786E+00  -0.025818703424772  -0.044587885274639   -0.010590108706158   -0.003183567935651  328.342445924295
 MJD     59400.000000000 TDT
 MAG  28.241  0.150
! Non-gravitational parameters: model used, number of model parameters, dimension, list of solve for parameters to be currently determined
 LSP   1  2    8    1  2
! Vector of dynamical parameters
! Area-to-mass ratio [m^2/t], Yarkovsky parameter [1E-10 au/day^2]
 NGR   3.92228537753657E-01 -5.47745799289690E-02
! RMS    9.51104E-08   5.34106E-08   4.47485E-08   1.10381E-08   3.92551E-09   4.53546E-04   3.84023E-02   1.42153E-03
! EIG   8.12187E-13   9.91506E-11   1.14077E-09   3.23655E-09   1.10120E-08   2.43064E-04   1.12416E-03   3.84141E-02
! WEA   0.00000  -0.00000  -0.00000   0.00000   0.00000  -0.00861   0.99969   0.02321
 COV   9.045990514037489E-15 -4.310036457017179E-15 -3.623923200230800E-15
 COV   7.951277173791751E-16  2.433446550442114E-16 -4.077556067712391E-11
 COV   1.856604260872520E-09  1.127418762306244E-10  2.852693731431724E-15
 COV   1.695013101481106E-15 -5.107616571257660E-16 -1.582486235449776E-16
 COV   2.134253610483744E-11 -8.850408878561094E-10 -3.395061739668442E-11
 COV   2.002430444954872E-15 -3.168326921269105E-16 -9.416269632401159E-17
 COV   1.919930885836673E-11 -1.458005542385519E-09 -5.214810877052482E-11
 COV   1.218404125341872E-16  4.220573281161046E-17 -3.756839821274132E-12
 COV   1.121700530687301E-10  5.572019776769766E-12  1.540960912636563E-17
 COV  -1.111870974226557E-12  2.171817388574150E-11  1.460839240186428E-12
 COV   2.057035958948727E-07 -1.270111586962808E-05 -5.031736877239956E-07
 COV   1.474738404491826E-03  3.420817295306519E-05  2.020745570284735E-06
 NOR   1.510392160590388E+24  3.010613756591358E+22 -2.847190405857299E+22
 NOR  -3.923755200799400E+22  7.119193656338679E+22  3.165996417810469E+20
 NOR   1.559455452436434E+18 -3.200499908212041E+19  6.121980907326906E+20
 NOR  -5.623473512675061E+20 -7.986575664669402E+20  1.446144763410462E+21
 NOR   6.307817607896067E+18  3.107869581052138E+16 -6.382017139330865E+17
 NOR   5.389508119220778E+20  7.325948110922601E+20 -1.330387237238508E+21
 NOR  -5.969336651611347E+18 -2.939907570786912E+16  6.032061168235244E+17
 NOR   1.042952010180453E+21 -1.888457578653545E+21 -8.220830314108549E+18
 NOR  -4.050470856079116E+16  8.317908634731254E+17  3.420540185237647E+21
 NOR   1.491642233759076E+19  7.349239747451518E+16 -1.509124137606627E+18
 NOR   6.636445438213666E+16  3.268852801282463E+14 -6.708641583403737E+15
 NOR   1.610114931151027E+12 -3.304452850969597E+13  6.781869208569199E+14
